CCSDS_OMM_VERS = 2.0
CREATION_DATE  = 
ORIGINATOR     = 

OBJECT_NAME    = CZ-2C R/B
OBJECT_ID      = 2025-266D
CENTER_NAME    = EARTH
REF_FRAME      = TEME
TIME_SYSTEM    = UTC
MEAN_ELEMENT_THEORY = SGP/SGP4

EPOCH          = 2025-12-08T11:41:13.292160
MEAN_MOTION    = 15.30043808
ECCENTRICITY   = .0084198
INCLINATION    = 52.0568
RA_OF_ASC_NODE = 351.5381
ARG_OF_PERICENTER = 158.5167
MEAN_ANOMALY   = 201.9387

EPHEMERIS_TYPE = 0
CLASSIFICATION_TYPE = U
NORAD_CAT_ID   = 66548
ELEMENT_SET_NO = 999
REV_AT_EPOCH   = 296
BSTAR          = .42890925E-3
MEAN_MOTION_DOT = .13724E-3
MEAN_MOTION_DDOT = 0

CCSDS_OMM_VERS = 2.0
CREATION_DATE  = 
ORIGINATOR     = 

OBJECT_NAME    = SHIJIAN-28
OBJECT_ID      = 2025-277A
CENTER_NAME    = EARTH
REF_FRAME      = TEME
TIME_SYSTEM    = UTC
MEAN_ELEMENT_THEORY = SGP/SGP4

EPOCH          = 2025-12-01T04:36:42.476256
MEAN_MOTION    = 2.08595383
ECCENTRICITY   = .6308324
INCLINATION    = 11.5392
RA_OF_ASC_NODE = 275.7060
ARG_OF_PERICENTER = 179.9335
MEAN_ANOMALY   = 180.3971

EPHEMERIS_TYPE = 0
CLASSIFICATION_TYPE = U
NORAD_CAT_ID   = 66549
ELEMENT_SET_NO = 999
REV_AT_EPOCH   = 5
BSTAR          = 0
MEAN_MOTION_DOT = -.33E-6
MEAN_MOTION_DDOT = 0

CCSDS_OMM_VERS = 2.0
CREATION_DATE  = 
ORIGINATOR     = 

OBJECT_NAME    = CZ-7A R/B
OBJECT_ID      = 2025-277B
CENTER_NAME    = EARTH
REF_FRAME      = TEME
TIME_SYSTEM    = UTC
MEAN_ELEMENT_THEORY = SGP/SGP4

EPOCH          = 2025-12-08T10:49:33.009600
MEAN_MOTION    = 2.55273447
ECCENTRICITY   = .71238594
INCLINATION    = 14.4003
RA_OF_ASC_NODE = 272.0222
ARG_OF_PERICENTER = 184.9879
MEAN_ANOMALY   = 159.4980

EPHEMERIS_TYPE = 0
CLASSIFICATION_TYPE = U
NORAD_CAT_ID   = 66550
ELEMENT_SET_NO = 999
REV_AT_EPOCH   = 23
BSTAR          = .28793489E-2
MEAN_MOTION_DOT = .1610432E-1
MEAN_MOTION_DDOT = .912994E-6

CCSDS_OMM_VERS = 2.0
CREATION_DATE  = 
ORIGINATOR     = 

OBJECT_NAME    = UNKNOWN
OBJECT_ID      = 2025-271AE
CENTER_NAME    = EARTH
REF_FRAME      = TEME
TIME_SYSTEM    = UTC
MEAN_ELEMENT_THEORY = SGP/SGP4

EPOCH          = 2025-12-02T16:00:03.000096
MEAN_MOTION    = 15.87051116
ECCENTRICITY   = .0000717
INCLINATION    = 53.1571
RA_OF_ASC_NODE = 236.7807
ARG_OF_PERICENTER = 110.7411
MEAN_ANOMALY   = 313.9012

EPHEMERIS_TYPE = 0
CLASSIFICATION_TYPE = U
NORAD_CAT_ID   = 66551
ELEMENT_SET_NO = 999
REV_AT_EPOCH   = 262
BSTAR          = -.74303E-2
MEAN_MOTION_DOT = -.1709685E-1
MEAN_MOTION_DDOT = 0

CCSDS_OMM_VERS = 2.0
CREATION_DATE  = 
ORIGINATOR     = 

OBJECT_NAME    = GLOBAL-33
OBJECT_ID      = 2025-267A
CENTER_NAME    = EARTH
REF_FRAME      = TEME
TIME_SYSTEM    = UTC
MEAN_ELEMENT_THEORY = SGP/SGP4

EPOCH          = 2025-12-08T13:19:37.894080
MEAN_MOTION    = 15.31498164
ECCENTRICITY   = .00047931
INCLINATION    = 42.0201
RA_OF_ASC_NODE = 81.1482
ARG_OF_PERICENTER = 22.7031
MEAN_ANOMALY   = 337.4018

EPHEMERIS_TYPE = 0
CLASSIFICATION_TYPE = U
NORAD_CAT_ID   = 66554
ELEMENT_SET_NO = 999
REV_AT_EPOCH   = 276
BSTAR          = .59832068E-3
MEAN_MOTION_DOT = .18392E-3
MEAN_MOTION_DDOT = 0

CCSDS_OMM_VERS = 2.0
CREATION_DATE  = 
ORIGINATOR     = 

OBJECT_NAME    = ELECTRON KICK STAGE R/B
OBJECT_ID      = 2025-267B
CENTER_NAME    = EARTH
REF_FRAME      = TEME
TIME_SYSTEM    = UTC
MEAN_ELEMENT_THEORY = SGP/SGP4

EPOCH          = 2025-12-08T13:06:52.531776
MEAN_MOTION    = 15.32503128
ECCENTRICITY   = .00068692
INCLINATION    = 42.0196
RA_OF_ASC_NODE = 81.0830
ARG_OF_PERICENTER = 20.9024
MEAN_ANOMALY   = 339.2093

EPHEMERIS_TYPE = 0
CLASSIFICATION_TYPE = U
NORAD_CAT_ID   = 66555
ELEMENT_SET_NO = 999
REV_AT_EPOCH   = 276
BSTAR          = .96183495E-3
MEAN_MOTION_DOT = .30739E-3
MEAN_MOTION_DDOT = 0

CCSDS_OMM_VERS = 2.0
CREATION_DATE  = 
ORIGINATOR     = 

OBJECT_NAME    = STARLINK-35699
OBJECT_ID      = 2025-268A
CENTER_NAME    = EARTH
REF_FRAME      = TEME
TIME_SYSTEM    = UTC
MEAN_ELEMENT_THEORY = SGP/SGP4

EPOCH          = 2025-12-08T14:00:01.999872
MEAN_MOTION    = 15.53218522
ECCENTRICITY   = .0000869
INCLINATION    = 43.0005
RA_OF_ASC_NODE = 145.5143
ARG_OF_PERICENTER = 253.0906
MEAN_ANOMALY   = 13.5488

EPHEMERIS_TYPE = 0
CLASSIFICATION_TYPE = U
NORAD_CAT_ID   = 66557
ELEMENT_SET_NO = 999
REV_AT_EPOCH   = 400
BSTAR          = -.28931857E-1
MEAN_MOTION_DOT = -.1671667E-1
MEAN_MOTION_DDOT = 0

CCSDS_OMM_VERS = 2.0
CREATION_DATE  = 
ORIGINATOR     = 

OBJECT_NAME    = STARLINK-35695
OBJECT_ID      = 2025-268B
CENTER_NAME    = EARTH
REF_FRAME      = TEME
TIME_SYSTEM    = UTC
MEAN_ELEMENT_THEORY = SGP/SGP4

EPOCH          = 2025-12-08T14:00:01.999872
MEAN_MOTION    = 15.53223015
ECCENTRICITY   = .00010472
INCLINATION    = 43.0000
RA_OF_ASC_NODE = 145.5102
ARG_OF_PERICENTER = 258.7263
MEAN_ANOMALY   = 9.8298

EPHEMERIS_TYPE = 0
CLASSIFICATION_TYPE = U
NORAD_CAT_ID   = 66558
ELEMENT_SET_NO = 999
REV_AT_EPOCH   = 400
BSTAR          = -.29566571E-1
MEAN_MOTION_DOT = -.1704804E-1
MEAN_MOTION_DDOT = 0

CCSDS_OMM_VERS = 2.0
CREATION_DATE  = 
ORIGINATOR     = 

OBJECT_NAME    = STARLINK-35419
OBJECT_ID      = 2025-268C
CENTER_NAME    = EARTH
REF_FRAME      = TEME
TIME_SYSTEM    = UTC
MEAN_ELEMENT_THEORY = SGP/SGP4

EPOCH          = 2025-12-08T14:00:01.999872
MEAN_MOTION    = 15.53226543
ECCENTRICITY   = .00016191
INCLINATION    = 43.0001
RA_OF_ASC_NODE = 145.5062
ARG_OF_PERICENTER = 260.5728
MEAN_ANOMALY   = 9.8999

EPHEMERIS_TYPE = 0
CLASSIFICATION_TYPE = U
NORAD_CAT_ID   = 66559
ELEMENT_SET_NO = 999
REV_AT_EPOCH   = 400
BSTAR          = -.30422417E-1
MEAN_MOTION_DOT = -.1749297E-1
MEAN_MOTION_DDOT = 0

CCSDS_OMM_VERS = 2.0
CREATION_DATE  = 
ORIGINATOR     = 

OBJECT_NAME    = STARLINK-35411
OBJECT_ID      = 2025-268D
CENTER_NAME    = EARTH
REF_FRAME      = TEME
TIME_SYSTEM    = UTC
MEAN_ELEMENT_THEORY = SGP/SGP4

EPOCH          = 2025-12-08T14:00:01.999872
MEAN_MOTION    = 15.53225230
ECCENTRICITY   = .00014345
INCLINATION    = 43.0004
RA_OF_ASC_NODE = 145.5011
ARG_OF_PERICENTER = 266.5608
MEAN_ANOMALY   = 5.8325

EPHEMERIS_TYPE = 0
CLASSIFICATION_TYPE = U
NORAD_CAT_ID   = 66560
ELEMENT_SET_NO = 999
REV_AT_EPOCH   = 400
BSTAR          = -.30624537E-1
MEAN_MOTION_DOT = -.1759472E-1
MEAN_MOTION_DDOT = 0

CCSDS_OMM_VERS = 2.0
CREATION_DATE  = 
ORIGINATOR     = 

OBJECT_NAME    = STARLINK-35305
OBJECT_ID      = 2025-268E
CENTER_NAME    = EARTH
REF_FRAME      = TEME
TIME_SYSTEM    = UTC
MEAN_ELEMENT_THEORY = SGP/SGP4

EPOCH          = 2025-12-08T14:00:01.999872
MEAN_MOTION    = 15.53229368
ECCENTRICITY   = .00014639
INCLINATION    = 43.0007
RA_OF_ASC_NODE = 145.4917
ARG_OF_PERICENTER = 264.1572
MEAN_ANOMALY   = 12.0674

EPHEMERIS_TYPE = 0
CLASSIFICATION_TYPE = U
NORAD_CAT_ID   = 66561
ELEMENT_SET_NO = 999
REV_AT_EPOCH   = 395
BSTAR          = -.30585104E-1
MEAN_MOTION_DOT = -.1757707E-1
MEAN_MOTION_DDOT = 0

CCSDS_OMM_VERS = 2.0
CREATION_DATE  = 
ORIGINATOR     = 

OBJECT_NAME    = STARLINK-35579
OBJECT_ID      = 2025-268F
CENTER_NAME    = EARTH
REF_FRAME      = TEME
TIME_SYSTEM    = UTC
MEAN_ELEMENT_THEORY = SGP/SGP4

EPOCH          = 2025-12-08T14:00:01.999872
MEAN_MOTION    = 15.53225575
ECCENTRICITY   = .00013151
INCLINATION    = 43.0005
RA_OF_ASC_NODE = 145.4956
ARG_OF_PERICENTER = 267.1871
MEAN_ANOMALY   = 7.1244

EPHEMERIS_TYPE = 0
CLASSIFICATION_TYPE = U
NORAD_CAT_ID   = 66562
ELEMENT_SET_NO = 999
REV_AT_EPOCH   = 400
BSTAR          = -.30721274E-1
MEAN_MOTION_DOT = -.1764375E-1
MEAN_MOTION_DDOT = 0

