CZ-2C R/B               
1 66548U 25266D   25342.48695940  .00013724  00000+0  42891-3 0  9994
2 66548  52.0568 351.5381 0084198 158.5167 201.9387 15.30043808  2965
SHIJIAN-28              
1 66549U 25277A   25335.19215829 -.00000033  00000+0  00000+0 0  9993
2 66549  11.5392 275.7060 6308324 179.9335 180.3971  2.08595383    50
CZ-7A R/B               
1 66550U 25277B   25342.45107650  .01610432  91299-6  28793-2 0  9993
2 66550  14.4003 272.0222 7123859 184.9879 159.4980  2.55273447   234
UNKNOWN                 
1 66551U 25271AE  25336.66670139 -.01709685  00000+0 -74303-2 0  9993
2 66551  53.1571 236.7807 0000717 110.7411 313.9012 15.87051116  2624
GLOBAL-33               
1 66554U 25267A   25342.55529970  .00018392  00000+0  59832-3 0  9998
2 66554  42.0201  81.1482 0004793  22.7031 337.4018 15.31498164  2762
ELECTRON KICK STAGE R/B 
1 66555U 25267B   25342.54644134  .00030739  00000+0  96183-3 0  9997
2 66555  42.0196  81.0830 0006869  20.9024 339.2093 15.32503128  2761
STARLINK-35699          
1 66557U 25268A   25342.58335648 -.01671667  00000+0 -28932-1 0  9990
2 66557  43.0005 145.5143 0000869 253.0906  13.5488 15.53218522  4001
STARLINK-35695          
1 66558U 25268B   25342.58335648 -.01704804  00000+0 -29567-1 0  9996
2 66558  43.0000 145.5102 0001047 258.7263   9.8298 15.53223015  4009
STARLINK-35419          
1 66559U 25268C   25342.58335648 -.01749297  00000+0 -30422-1 0  9994
2 66559  43.0001 145.5062 0001619 260.5728   9.8999 15.53226543  4005
STARLINK-35411          
1 66560U 25268D   25342.58335648 -.01759472  00000+0 -30625-1 0  9997
2 66560  43.0004 145.5011 0001434 266.5608   5.8325 15.53225230  4003
STARLINK-35305          
1 66561U 25268E   25342.58335648 -.01757707  00000+0 -30585-1 0  9992
2 66561  43.0007 145.4917 0001463 264.1572  12.0674 15.53229368  3953
STARLINK-35579          
1 66562U 25268F   25342.58335648 -.01764375  00000+0 -30721-1 0  9994
2 66562  43.0005 145.4956 0001315 267.1871   7.1244 15.53225575  4007
